H1 CPF 01  gfz 2021 05 03 12  6232 tandemx   
H2 1003001  6202 36605    2021 05 03 12 59 42 2021 05 08 00 00 42   120 1 1  0 0 0
H9
10 0 59341  65502.000000  0    4043934.159   -902069.588   5492877.600
10 0 59341  65622.000000  0    3263862.874   -959377.541   5979252.863
10 0 59341  65742.000000  0    2426066.491   -985776.086   6360475.493
10 0 59341  65862.000000  0    1545741.576   -979932.156   6629877.003
10 0 59341  65982.000000  0     638831.580   -941346.992   6782750.944
10 0 59341  66102.000000  0    -278264.715   -870374.372   6816429.332
10 0 59341  66222.000000  0   -1188989.459   -768219.721   6730324.979
10 0 59341  66342.000000  0   -2076923.304   -636919.740   6525940.645
10 0 59341  66462.000000  0   -2926079.868   -479302.548   6206844.433
10 0 59341  66582.000000  0   -3721193.691   -298929.208   5778612.662
10 0 59341  66702.000000  0   -4447998.131   -100017.692   5248738.905
10 0 59341  66822.000000  0   -5093487.495    112649.620   4626508.730
10 0 59341  66942.000000  0   -5646157.658    333832.831   3922841.673
10 0 59341  67062.000000  0   -6096219.946    557954.461   3150102.490
10 0 59341  67182.000000  0   -6435784.266    779229.620   2321885.537
10 0 59341  67302.000000  0   -6659007.177    991803.576   1452773.555
10 0 59341  67422.000000  0   -6762200.705   1189892.796    558076.059
10 0 59341  67542.000000  0   -6743898.315   1367926.604   -346448.435
10 0 59341  67662.000000  0   -6604874.852   1520685.366  -1244879.405
10 0 59341  67782.000000  0   -6348121.185   1643431.124  -2121422.733
10 0 59341  67902.000000  0   -5978776.018   1732029.043  -2960695.625
10 0 59341  68022.000000  0   -5504013.914   1783055.441  -3748003.157
10 0 59341  68142.000000  0   -4932893.506   1793888.830  -4469597.276
10 0 59341  68262.000000  0   -4276172.184   1762783.322  -5112913.909
10 0 59341  68382.000000  0   -3546092.155   1688922.695  -5666784.652
10 0 59341  68502.000000  0   -2756144.440   1572454.534  -6121620.751
10 0 59341  68622.000000  0   -1920814.954   1414503.596  -6469568.770
10 0 59341  68742.000000  0   -1055316.307   1217165.115  -6704634.395
10 0 59341  68862.000000  0    -175313.309    983477.510  -6822774.008
10 0 59341  68982.000000  0     703354.000    717376.278  -6821955.857
10 0 59341  69102.000000  0    1564947.808    423629.216  -6702193.386
10 0 59341  69222.000000  0    2394109.152    107752.772  -6465545.306
10 0 59341  69342.000000  0    3176125.645   -224088.144  -6116083.959
10 0 59341  69462.000000  0    3897189.541   -565196.130  -5659832.191
10 0 59341  69582.000000  0    4544639.688   -908471.288  -5104669.390
10 0 59341  69702.000000  0    5107187.680  -1246553.895  -4460208.198
10 0 59341  69822.000000  0    5575122.182  -1571977.167  -3737638.835
10 0 59341  69942.000000  0    5940486.392  -1877326.746  -2949543.905
10 0 59341  70062.000000  0    6197224.943  -2155404.148  -2109685.398
10 0 59341  70182.000000  0    6341295.747  -2399390.362  -1232766.683
10 0 59341  70302.000000  0    6370743.604  -2603005.005   -334174.125
10 0 59341  70422.000000  0    6285733.376  -2760657.609    570297.329
10 0 59341  70542.000000  0    6088541.035  -2867586.476   1464728.975
10 0 59341  70662.000000  0    5783501.764  -2919981.587   2333368.223
10 0 59341  70782.000000  0    5376915.222  -2915088.386   3160914.801
10 0 59341  70902.000000  0    4876911.953  -2851288.908   3932798.217
10 0 59341  71022.000000  0    4293284.446  -2728158.227   4635438.151
10 0 59341  71142.000000  0    3637289.387  -2546497.249   5256486.084
10 0 59341  71262.000000  0    2921421.332  -2308339.429   5785042.767
10 0 59341  71382.000000  0    2159167.044  -2016930.755   6211845.343
10 0 59341  71502.000000  0    1364746.013  -1676685.444   6529424.417
10 0 59341  71622.000000  0     552841.379  -1293117.873   6732228.960
10 0 59341  71742.000000  0    -261673.461   -872751.651   6816717.393
10 0 59341  71862.000000  0   -1064007.039   -423007.609   6781414.753
10 0 59341  71982.000000  0   -1839717.166     47927.000   6626936.562
10 0 59341  72102.000000  0   -2574969.832    531247.163   6355978.876
10 0 59341  72222.000000  0   -3256785.890   1017693.857   5973274.650
10 0 59341  72342.000000  0   -3873272.077   1497730.286   5485516.696
10 0 59341  72462.000000  0   -4413833.230   1961728.065   4901247.276
10 0 59341  72582.000000  0   -4869361.400   2400160.416   4230714.078
10 0 59341  72702.000000  0   -5232396.356   2803798.498   3485693.863
10 0 59341  72822.000000  0   -5497254.775   3163905.712   2679287.581
10 0 59341  72942.000000  0   -5660125.832   3472426.607   1825690.081
10 0 59341  73062.000000  0   -5719130.874   3722166.501    939936.552
10 0 59341  73182.000000  0   -5674342.715   3906955.064     37630.110
10 0 59341  73302.000000  0   -5527765.723   4021790.328   -865340.836
10 0 59341  73422.000000  0   -5283277.423   4062960.155  -1753091.318
10 0 59341  73542.000000  0   -4946531.669   4028137.450  -2610029.173
10 0 59341  73662.000000  0   -4524825.381   3916445.622  -3421135.659
10 0 59341  73782.000000  0   -4026934.678   3728493.920  -4172231.752
10 0 59341  73902.000000  0   -3462925.243   3466382.882  -4850224.344
10 0 59341  74022.000000  0   -2843941.945   3133680.082  -5443328.739
10 0 59341  74142.000000  0   -2181984.993   2735368.198  -5941264.580
10 0 59341  74262.000000  0   -1489674.296   2277766.209  -6335424.829
10 0 59341  74382.000000  0    -780007.897   1768424.722  -6619012.434
10 0 59341  74502.000000  0     -66120.766   1215999.956  -6787146.082
10 0 59341  74622.000000  0     638953.059    630107.181  -6836934.820
10 0 59341  74742.000000  0    1322512.464     21156.784  -6767523.867
10 0 59341  74862.000000  0    1972413.677   -599827.137  -6580107.150
10 0 59341  74982.000000  0    2577280.355  -1221401.027  -6277908.307
10 0 59341  75102.000000  0    3126699.743  -1831907.355  -5866131.454
10 0 59341  75222.000000  0    3611400.839  -2419687.804  -5351881.470
10 0 59341  75342.000000  0    4023414.529  -2973304.299  -4744053.646
10 0 59341  75462.000000  0    4356208.820  -3481761.868  -4053189.368
10 0 59341  75582.000000  0    4604797.483  -3934727.551  -3291303.516
10 0 59341  75702.000000  0    4765822.064  -4322743.206  -2471684.067
10 0 59341  75822.000000  0    4837603.032  -4637426.559  -1608664.551
10 0 59341  75942.000000  0    4820158.466  -4871655.904   -717374.028
10 0 59341  76062.000000  0    4715187.782  -5019733.021    186532.059
10 0 59341  76182.000000  0    4526021.151  -5077518.814   1087153.370
10 0 59341  76302.000000  0    4257536.265  -5042538.573   1968633.329
10 0 59341  76422.000000  0    3916042.221  -4914053.046   2815447.159
10 0 59341  76542.000000  0    3509136.209  -4693095.293   3612682.911
10 0 59341  76662.000000  0    3045535.026  -4382470.820   4346310.613
10 0 59341  76782.000000  0    2534886.617  -3986721.412   5003432.600
10 0 59341  76902.000000  0    1987566.656  -3512054.453   5572510.676
10 0 59341  77022.000000  0    1414464.617  -2966239.754   6043567.015
10 0 59341  77142.000000  0     826764.141  -2358475.630   6408354.117
10 0 59341  77262.000000  0     235723.104  -1699229.217   6660492.853
10 0 59341  77382.000000  0    -347542.285  -1000053.308   6795577.643
10 0 59341  77502.000000  0    -912265.464   -273381.909   6811249.335
10 0 59341  77622.000000  0   -1448227.374    467691.352   6707233.560
10 0 59341  77742.000000  0   -1945940.864   1209648.719   6485345.085
10 0 59341  77862.000000  0   -2396818.627   1938793.985   6149458.101
10 0 59341  77982.000000  0   -2793322.271   2641504.803   5705442.833
10 0 59341  78102.000000  0   -3129090.265   3304488.385   5161069.240
10 0 59341  78222.000000  0   -3399043.567   3915035.628   4525877.376
10 0 59341  78342.000000  0   -3599465.655   4461269.632   3811015.541
10 0 59341  78462.000000  0   -3728055.295   4932383.074   3029047.765
10 0 59341  78582.000000  0   -3783950.552   5318859.053   2193732.993
10 0 59341  78702.000000  0   -3767722.780   5612668.556   1319779.759
10 0 59341  78822.000000  0   -3681341.291   5807440.768    422582.926
10 0 59341  78942.000000  0   -3528110.395   5898603.701   -482054.508
10 0 59341  79062.000000  0   -3312577.799   5883488.099  -1378210.209
10 0 59341  79182.000000  0   -3040417.641   5761391.673  -2250133.290
10 0 59341  79302.000000  0   -2718289.181   5533601.885  -3082528.813
10 0 59341  79422.000000  0   -2353679.260   5203380.031  -3860829.165
10 0 59341  79542.000000  0   -1954731.853   4775906.159  -4571450.055
10 0 59341  79662.000000  0   -1530067.905   4258186.635  -5202023.054
10 0 59341  79782.000000  0   -1088601.846   3658930.222  -5741603.234
10 0 59341  79902.000000  0    -639356.817   2988393.500  -6180850.970
10 0 59341  80022.000000  0    -191282.617   2258198.066  -6512182.906
10 0 59341  80142.000000  0     246918.732   1481126.081  -6729890.550
10 0 59341  80262.000000  0     666957.005    670897.311  -6830229.325
10 0 59341  80382.000000  0    1061106.844   -158069.569  -6811476.185
10 0 59341  80502.000000  0    1422346.102   -990908.858  -6673955.251
10 0 59341  80622.000000  0    1744477.330  -1812567.476  -6420031.429
10 0 59341  80742.000000  0    2022232.256  -2608069.538  -6054074.628
10 0 59341  80862.000000  0    2251357.665  -3362783.790  -5582393.909
10 0 59341  80982.000000  0    2428681.616  -4062692.536  -5013140.352
10 0 59341  81102.000000  0    2552157.827  -4694653.505  -4356175.400
10 0 59341  81222.000000  0    2620887.442  -5246649.288  -3622910.790
10 0 59341  81342.000000  0    2635117.698  -5708023.505  -2826120.421
10 0 59341  81462.000000  0    2596217.532  -6069696.235  -1979723.733
10 0 59341  81582.000000  0    2506630.339  -6324353.776  -1098545.312
10 0 59341  81702.000000  0    2369803.459  -6466606.894   -198052.436
10 0 59341  81822.000000  0    2190095.379  -6493110.474    705922.607
10 0 59341  81942.000000  0    1972664.442  -6402644.416   1597467.569
99
